OBJECT_NAME,OBJECT_ID,EPOCH,MEAN_MOTION,ECCENTRICITY,INCLINATION,RA_OF_ASC_NODE,ARG_OF_PERICENTER,MEAN_ANOMALY,EPHEMERIS_TYPE,CLASSIFICATION_TYPE,NORAD_CAT_ID,ELEMENT_SET_NO,REV_AT_EPOCH,BSTAR,MEAN_MOTION_DOT,MEAN_MOTION_DDOT
GSAT0216 (GALILEO 20),2017-079B,2026-06-30T19:09:15.256800,1.70474719,.00046863,55.0708,221.1319,276.4690,83.5705,0,U,43056,999,5323,0,.74E-6,0
GSAT0217 (GALILEO 21),2017-079C,2026-07-01T00:27:12.213504,1.70474451,.00048591,55.0679,221.1236,286.9654,73.0732,0,U,43057,999,5322,0,.74E-6,0
GSAT0218 (GALILEO 22),2017-079D,2026-07-02T09:53:27.009888,1.70474427,.0006071,55.0685,221.0829,274.9367,85.0792,0,U,43058,999,5327,0,.74E-6,0
BEIDOU-3 M7 (C27),2018-003A,2026-07-01T20:21:47.965248,1.86228484,.000456,54.3138,301.8036,96.5844,263.4825,0,U,43107,999,5762,0,-.64E-6,0
BEIDOU-3 M8 (C28),2018-003B,2026-07-03T22:34:48.076608,1.86231143,.0002939,54.3045,301.7129,257.9576,102.0322,0,U,43108,999,5767,0,-.59E-6,0
BEIDOU-3 M4 (C22),2018-018A,2026-06-30T02:07:08.825376,1.86231543,.0007448,56.6620,62.7232,23.9137,336.1827,0,U,43207,999,5698,0,-.5E-6,0
BEIDOU-3 M3 (C21),2018-018B,2026-07-01T05:29:19.502880,1.86231467,.0008079,56.6624,62.6897,343.2335,16.8061,0,U,43208,999,5700,0,-.42E-6,0
BEIDOU-3 M9 (C29),2018-029A,2026-07-01T10:43:05.589408,1.86228732,.0001004,54.1799,299.4503,175.4887,184.5291,0,U,43245,999,5616,0,-.63E-6,0
BEIDOU-3 M10 (C30),2018-029B,2026-07-01T09:08:27.870432,1.86229617,.00036167,54.1777,299.4786,39.0295,321.0130,0,U,43246,999,5614,0,-.63E-6,0
IRNSS-1I,2018-035A,2026-06-28T19:05:38.535360,1.00277388,.0017671,28.7805,74.0157,182.6115,1.5908,0,U,43286,999,3019,0,.66E-6,0
COSMOS 2527 (756),2018-053A,2026-07-02T02:25:34.724640,2.13102340,.0006722,65.5856,73.4097,233.8398,126.1632,0,U,43508,999,6259,0,-.9E-7,0
BEIDOU-2 IGSO-7 (C16),2018-057A,2026-07-01T21:23:21.693984,1.00246939,.01049468,55.1981,162.9292,237.8611,308.6338,0,U,43539,999,2927,0,-.33E-6,0
GSAT0221 (GALILEO 25),2018-060A,2026-07-01T03:25:52.946688,1.70476287,.0002519,57.1648,341.4040,293.8914,66.0735,0,U,43564,999,4940,0,-.82E-6,0
GSAT0222 (GALILEO 26),2018-060B,2026-07-01T08:42:12.934944,1.70476063,.00023358,57.1683,341.4018,239.2507,120.7178,0,U,43565,999,4945,0,-.81E-6,0
GSAT0219 (GALILEO 23),2018-060C,2026-07-02T04:04:57.428832,1.70476198,.00017741,57.1675,341.3816,308.8571,51.1194,0,U,43566,999,4944,0,-.79E-6,0
GSAT0220 (GALILEO 24),2018-060D,2026-06-30T01:04:28.014816,1.70476251,.00019148,57.1670,341.4391,299.6424,60.3296,0,U,43567,999,4939,0,-.86E-6,0
BEIDOU-3 M5 (C23),2018-062A,2026-07-01T14:30:59.385600,1.86228820,.00057012,54.0865,181.8139,291.6119,68.3325,0,U,43581,999,5390,0,.71E-6,0
BEIDOU-3 M6 (C24),2018-062B,2026-06-30T22:21:16.377120,1.86227996,.0005166,54.0861,181.8260,9.1452,350.8724,0,U,43582,999,5389,0,.69E-6,0
BEIDOU-3 M12 (C26),2018-067A,2026-07-03T00:25:27.778368,1.86227858,.0007901,54.1813,180.5033,29.9271,330.1165,0,U,43602,999,5341,0,.79E-6,0
BEIDOU-3 M11 (C25),2018-067B,2026-07-03T03:40:01.107840,1.86227322,.00046163,54.1787,180.4623,13.1281,346.8822,0,U,43603,999,5344,0,.8E-6,0
BEIDOU-3 M13 (C32),2018-072A,2026-07-02T13:41:43.065312,1.86231573,.00066302,56.6380,62.1518,331.9120,28.1218,0,U,43622,999,5294,0,-.37E-6,0
BEIDOU-3 M14 (C33),2018-072B,2026-07-02T23:21:08.978976,1.86231600,.00057053,56.6399,62.1331,5.9909,354.0859,0,U,43623,999,5294,0,-.36E-6,0
BEIDOU-3 M16 (C35),2018-078A,2026-06-30T10:38:26.690208,1.86232447,.00068914,54.0771,299.5213,40.4774,319.5856,0,U,43647,999,5240,0,-.69E-6,0
BEIDOU-3 M15 (C34),2018-078B,2026-06-30T00:51:23.712768,1.86232575,.00038812,54.0730,299.5360,58.0730,301.9745,0,U,43648,999,5241,0,-.71E-6,0
BEIDOU-3 G1 (C59),2018-085A,2026-07-03T15:19:38.572896,1.00270926,.00085562,2.9080,96.9396,353.6394,220.9042,0,U,43683,999,2822,0,-.99E-6,0
COSMOS 2529 (757),2018-086A,2026-07-02T04:44:16.979136,2.13102148,.0012102,64.2962,192.0874,256.3420,103.5558,0,U,43687,999,5960,0,.81E-6,0
BEIDOU-3 M17 (C36),2018-093A,2026-06-30T17:30:46.323648,1.86228547,.00101661,54.1700,181.8368,292.9886,63.8528,0,U,43706,999,5178,0,.69E-6,0
BEIDOU-3 M18 (C37),2018-093B,2026-06-30T01:27:39.144672,1.86226728,.00080891,54.1707,181.8515,321.6301,38.3251,0,U,43707,999,5177,0,.7E-6,0
GPS BIII-1  (PRN 04),2018-109A,2026-07-02T17:19:49.300032,2.00562535,.00385545,55.6905,91.5743,197.5266,343.1404,0,U,43873,999,5538,0,-.9E-7,0
BEIDOU-3 IGSO-1 (C38),2019-023A,2026-07-02T20:40:39.940032,1.00287534,.00256419,58.7163,37.4891,224.0382,88.2901,0,U,44204,999,736,0,-.197E-5,0
BEIDOU-2 G8 (C01),2019-027A,2026-07-03T23:10:38.304768,1.00276034,.0010024,1.6979,74.5471,284.9546,54.5794,0,U,44231,999,2624,0,-.236E-5,0
